[{"OBJECT_NAME":"STARLINK-34584","OBJECT_ID":"2025-142B","EPOCH":"2025-11-16T17:27:01.712160","MEAN_MOTION":14.98352834,"ECCENTRICITY":0.0002484,"INCLINATION":70.0042,"RA_OF_ASC_NODE":239.1255,"ARG_OF_PERICENTER":272.6521,"MEAN_ANOMALY":87.4354,"EPHEMERIS_TYPE":0,"CLASSIFICATION_TYPE":"U","NORAD_CAT_ID":64697,"ELEMENT_SET_NO":999,"REV_AT_EPOCH":2256,"BSTAR":0.00091984,"MEAN_MOTION_DOT":0.00010906,"MEAN_MOTION_DDOT":0},{"OBJECT_NAME":"STARLINK-34535","OBJECT_ID":"2025-142C","EPOCH":"2025-11-16T17:48:17.856576","MEAN_MOTION":14.95910507,"ECCENTRICITY":0.0002389,"INCLINATION":70.004,"RA_OF_ASC_NODE":238.765,"ARG_OF_PERICENTER":267.173,"MEAN_ANOMALY":92.9154,"EPHEMERIS_TYPE":0,"CLASSIFICATION_TYPE":"U","NORAD_CAT_ID":64698,"ELEMENT_SET_NO":999,"REV_AT_EPOCH":2256,"BSTAR":-0.00017678,"MEAN_MOTION_DOT":-2.072e-5,"MEAN_MOTION_DDOT":0},{"OBJECT_NAME":"STARLINK-34600","OBJECT_ID":"2025-142D","EPOCH":"2025-11-16T17:54:51.103584","MEAN_MOTION":14.95914172,"ECCENTRICITY":0.0002639,"INCLINATION":70.0021,"RA_OF_ASC_NODE":238.3809,"ARG_OF_PERICENTER":275.2525,"MEAN_ANOMALY":84.8332,"EPHEMERIS_TYPE":0,"CLASSIFICATION_TYPE":"U","NORAD_CAT_ID":64699,"ELEMENT_SET_NO":999,"REV_AT_EPOCH":2258,"BSTAR":0.0014599,"MEAN_MOTION_DOT":0.00016317,"MEAN_MOTION_DDOT":0},{"OBJECT_NAME":"STARLINK-34560","OBJECT_ID":"2025-142E","EPOCH":"2025-11-16T17:38:00.247776","MEAN_MOTION":14.95960771,"ECCENTRICITY":0.0003163,"INCLINATION":70.0013,"RA_OF_ASC_NODE":238.3416,"ARG_OF_PERICENTER":267.2847,"MEAN_ANOMALY":92.7949,"EPHEMERIS_TYPE":0,"CLASSIFICATION_TYPE":"U","NORAD_CAT_ID":64700,"ELEMENT_SET_NO":999,"REV_AT_EPOCH":2254,"BSTAR":0.0016678,"MEAN_MOTION_DOT":0.00018683,"MEAN_MOTION_DDOT":0},{"OBJECT_NAME":"STARLINK-34576","OBJECT_ID":"2025-142F","EPOCH":"2025-11-16T17:24:06.440256","MEAN_MOTION":14.9591273,"ECCENTRICITY":0.0002813,"INCLINATION":70.0024,"RA_OF_ASC_NODE":238.3039,"ARG_OF_PERICENTER":269.4956,"MEAN_ANOMALY":90.588,"EPHEMERIS_TYPE":0,"CLASSIFICATION_TYPE":"U","NORAD_CAT_ID":64701,"ELEMENT_SET_NO":999,"REV_AT_EPOCH":2257,"BSTAR":0.0011731,"MEAN_MOTION_DOT":0.00013088,"MEAN_MOTION_DDOT":0},{"OBJECT_NAME":"STARLINK-34322","OBJECT_ID":"2025-142G","EPOCH":"2025-11-16T18:57:18.452160","MEAN_MOTION":14.95908143,"ECCENTRICITY":0.0002239,"INCLINATION":70.0031,"RA_OF_ASC_NODE":238.524,"ARG_OF_PERICENTER":271.4209,"MEAN_ANOMALY":88.6692,"EPHEMERIS_TYPE":0,"CLASSIFICATION_TYPE":"U","NORAD_CAT_ID":64702,"ELEMENT_SET_NO":999,"REV_AT_EPOCH":2274,"BSTAR":0.0012075,"MEAN_MOTION_DOT":0.00013473,"MEAN_MOTION_DDOT":0},{"OBJECT_NAME":"STARLINK-34470","OBJECT_ID":"2025-142H","EPOCH":"2025-11-16T04:42:11.998944","MEAN_MOTION":14.95939418,"ECCENTRICITY":0.00031022,"INCLINATION":70.0021,"RA_OF_ASC_NODE":239.6696,"ARG_OF_PERICENTER":280.3672,"MEAN_ANOMALY":79.7137,"EPHEMERIS_TYPE":0,"CLASSIFICATION_TYPE":"U","NORAD_CAT_ID":64703,"ELEMENT_SET_NO":999,"REV_AT_EPOCH":2248,"BSTAR":0.0014756657,"MEAN_MOTION_DOT":0.00016506,"MEAN_MOTION_DDOT":0},{"OBJECT_NAME":"STARLINK-34405","OBJECT_ID":"2025-142J","EPOCH":"2025-11-16T17:45:17.671104","MEAN_MOTION":14.98335485,"ECCENTRICITY":0.0003085,"INCLINATION":70.0026,"RA_OF_ASC_NODE":239.175,"ARG_OF_PERICENTER":264.0085,"MEAN_ANOMALY":96.0722,"EPHEMERIS_TYPE":0,"CLASSIFICATION_TYPE":"U","NORAD_CAT_ID":64704,"ELEMENT_SET_NO":999,"REV_AT_EPOCH":2257,"BSTAR":0.00070778,"MEAN_MOTION_DOT":8.363e-5,"MEAN_MOTION_DDOT":0},{"OBJECT_NAME":"STARLINK-34406","OBJECT_ID":"2025-142K","EPOCH":"2025-11-16T11:56:35.380608","MEAN_MOTION":14.9834223,"ECCENTRICITY":0.00024115,"INCLINATION":70.0028,"RA_OF_ASC_NODE":239.9319,"ARG_OF_PERICENTER":271.8196,"MEAN_ANOMALY":88.2687,"EPHEMERIS_TYPE":0,"CLASSIFICATION_TYPE":"U","NORAD_CAT_ID":64705,"ELEMENT_SET_NO":999,"REV_AT_EPOCH":2264,"BSTAR":0.0002329512,"MEAN_MOTION_DOT":2.688e-5,"MEAN_MOTION_DDOT":0},{"OBJECT_NAME":"STARLINK-34559","OBJECT_ID":"2025-142L","EPOCH":"2025-11-16T17:45:04.043232","MEAN_MOTION":14.98355158,"ECCENTRICITY":0.0003792,"INCLINATION":70.0019,"RA_OF_ASC_NODE":239.1697,"ARG_OF_PERICENTER":266.4737,"MEAN_ANOMALY":93.5988,"EPHEMERIS_TYPE":0,"CLASSIFICATION_TYPE":"U","NORAD_CAT_ID":64706,"ELEMENT_SET_NO":999,"REV_AT_EPOCH":2257,"BSTAR":0.0014417,"MEAN_MOTION_DOT":0.00017164,"MEAN_MOTION_DDOT":0},{"OBJECT_NAME":"STARLINK-34316","OBJECT_ID":"2025-142M","EPOCH":"2025-11-16T17:51:06.124896","MEAN_MOTION":14.98359744,"ECCENTRICITY":0.0003113,"INCLINATION":70.0019,"RA_OF_ASC_NODE":239.184,"ARG_OF_PERICENTER":261.5663,"MEAN_ANOMALY":98.5143,"EPHEMERIS_TYPE":0,"CLASSIFICATION_TYPE":"U","NORAD_CAT_ID":64707,"ELEMENT_SET_NO":999,"REV_AT_EPOCH":2273,"BSTAR":0.0017591,"MEAN_MOTION_DOT":0.00020975,"MEAN_MOTION_DDOT":0},{"OBJECT_NAME":"STARLINK-34563","OBJECT_ID":"2025-142N","EPOCH":"2025-11-16T18:51:10.083168","MEAN_MOTION":14.98331909,"ECCENTRICITY":0.0002552,"INCLINATION":70.0041,"RA_OF_ASC_NODE":239.3262,"ARG_OF_PERICENTER":268.8547,"MEAN_ANOMALY":91.232,"EPHEMERIS_TYPE":0,"CLASSIFICATION_TYPE":"U","NORAD_CAT_ID":64708,"ELEMENT_SET_NO":999,"REV_AT_EPOCH":2254,"BSTAR":1.6098e-5,"MEAN_MOTION_DOT":9.9e-7,"MEAN_MOTION_DDOT":0},{"OBJECT_NAME":"STARLINK-34499","OBJECT_ID":"2025-142P","EPOCH":"2025-11-16T11:53:50.416224","MEAN_MOTION":14.95915478,"ECCENTRICITY":0.00030246,"INCLINATION":70.0034,"RA_OF_ASC_NODE":239.5062,"ARG_OF_PERICENTER":280.3532,"MEAN_ANOMALY":79.7284,"EPHEMERIS_TYPE":0,"CLASSIFICATION_TYPE":"U","NORAD_CAT_ID":64709,"ELEMENT_SET_NO":999,"REV_AT_EPOCH":2251,"BSTAR":0.0017760703,"MEAN_MOTION_DOT":0.00019882,"MEAN_MOTION_DDOT":0},{"OBJECT_NAME":"STARLINK-34447","OBJECT_ID":"2025-142Q","EPOCH":"2025-11-16T18:38:58.855776","MEAN_MOTION":14.95945101,"ECCENTRICITY":0.0002048,"INCLINATION":70.0035,"RA_OF_ASC_NODE":238.0809,"ARG_OF_PERICENTER":262.0468,"MEAN_ANOMALY":98.0458,"EPHEMERIS_TYPE":0,"CLASSIFICATION_TYPE":"U","NORAD_CAT_ID":64710,"ELEMENT_SET_NO":999,"REV_AT_EPOCH":2276,"BSTAR":0.00064732,"MEAN_MOTION_DOT":7.181e-5,"MEAN_MOTION_DDOT":0},{"OBJECT_NAME":"STARLINK-34312","OBJECT_ID":"2025-142R","EPOCH":"2025-11-16T17:57:20.266272","MEAN_MOTION":14.98368996,"ECCENTRICITY":0.0002597,"INCLINATION":70.0026,"RA_OF_ASC_NODE":239.1928,"ARG_OF_PERICENTER":264.3487,"MEAN_ANOMALY":95.7376,"EPHEMERIS_TYPE":0,"CLASSIFICATION_TYPE":"U","NORAD_CAT_ID":64711,"ELEMENT_SET_NO":999,"REV_AT_EPOCH":2273,"BSTAR":0.0014879,"MEAN_MOTION_DOT":0.00017723,"MEAN_MOTION_DDOT":0},{"OBJECT_NAME":"STARLINK-34515","OBJECT_ID":"2025-142S","EPOCH":"2025-11-16T04:35:56.992704","MEAN_MOTION":14.95971212,"ECCENTRICITY":0.00031882,"INCLINATION":70.0008,"RA_OF_ASC_NODE":240.0501,"ARG_OF_PERICENTER":266.6324,"MEAN_ANOMALY":93.4469,"EPHEMERIS_TYPE":0,"CLASSIFICATION_TYPE":"U","NORAD_CAT_ID":64712,"ELEMENT_SET_NO":999,"REV_AT_EPOCH":2247,"BSTAR":0.0019290753,"MEAN_MOTION_DOT":0.00021639,"MEAN_MOTION_DDOT":0}]
