STARLINK-34584          
1 64697U 25142B   25320.72710315  .00010906  00000+0  91984-3 0  9993
2 64697  70.0042 239.1255 0002484 272.6521  87.4354 14.98352834 22560
STARLINK-34535          
1 64698U 25142C   25320.74187334 -.00002072  00000+0 -17678-3 0  9990
2 64698  70.0040 238.7650 0002389 267.1730  92.9154 14.95910507 22561
STARLINK-34600          
1 64699U 25142D   25320.74642481  .00016317  00000+0  14599-2 0  9993
2 64699  70.0021 238.3809 0002639 275.2525  84.8332 14.95914172 22585
STARLINK-34560          
1 64700U 25142E   25320.73472509  .00018683  00000+0  16678-2 0  9995
2 64700  70.0013 238.3416 0003163 267.2847  92.7949 14.95960771 22548
STARLINK-34576          
1 64701U 25142F   25320.72507454  .00013088  00000+0  11731-2 0  9992
2 64701  70.0024 238.3039 0002813 269.4956  90.5880 14.95912730 22573
STARLINK-34322          
1 64702U 25142G   25320.78979690  .00013473  00000+0  12075-2 0  9994
2 64702  70.0031 238.5240 0002239 271.4209  88.6692 14.95908143 22745
STARLINK-34470          
1 64703U 25142H   25320.19597221  .00016506  00000+0  14757-2 0  9995
2 64703  70.0021 239.6696 0003102 280.3672  79.7137 14.95939418 22480
STARLINK-34405          
1 64704U 25142J   25320.73978786  .00008363  00000+0  70778-3 0  9993
2 64704  70.0026 239.1750 0003085 264.0085  96.0722 14.98335485 22578
STARLINK-34406          
1 64705U 25142K   25320.49763172  .00002688  00000+0  23295-3 0  9994
2 64705  70.0028 239.9319 0002411 271.8196  88.2687 14.98342230 22648
STARLINK-34559          
1 64706U 25142L   25320.73963013  .00017164  00000+0  14417-2 0  9998
2 64706  70.0019 239.1697 0003792 266.4737  93.5988 14.98355158 22572
STARLINK-34316          
1 64707U 25142M   25320.74382089  .00020975  00000+0  17591-2 0  9998
2 64707  70.0019 239.1840 0003113 261.5663  98.5143 14.98359744 22735
STARLINK-34563          
1 64708U 25142N   25320.78553337  .00000099  00000+0  16098-4 0  9997
2 64708  70.0041 239.3262 0002552 268.8547  91.2320 14.98331909 22547
STARLINK-34499          
1 64709U 25142P   25320.49572241  .00019882  00000+0  17761-2 0  9997
2 64709  70.0034 239.5062 0003024 280.3532  79.7284 14.95915478 22511
STARLINK-34447          
1 64710U 25142Q   25320.77707009  .00007181  00000+0  64732-3 0  9992
2 64710  70.0035 238.0809 0002048 262.0468  98.0458 14.95945101 22767
STARLINK-34312          
1 64711U 25142R   25320.74815123  .00017723  00000+0  14879-2 0  9996
2 64711  70.0026 239.1928 0002597 264.3487  95.7376 14.98368996 22731
STARLINK-34515          
1 64712U 25142S   25320.19163186  .00021639  00000+0  19291-2 0  9995
2 64712  70.0008 240.0501 0003188 266.6324  93.4469 14.95971212 22479
